start=new Date('2023-06-28T00:00:00.000Z').valueOf();
sats=[{"TLE_LINE2":"2 48555  53.0531 248.9409 0001092  86.6974 273.4140 15.06409975116863","SEMIMAJOR_AXIS":"6925.318","GP_ID":"234585293","NORAD_CAT_ID":"48555","ECCENTRICITY":"0.00010920","MEAN_MOTION":"15.06409975","MEAN_MOTION_DOT":"0.00018815","APOAPSIS":"547.939","ARG_OF_PERICENTER":"86.6974","OBJECT_NAME":"STARLINK-2145","MEAN_ELEMENT_THEORY":"SGP4","LAUNCH_DATE":"2021-05-15","TIME_SYSTEM":"UTC","TLE_LINE1":"1 48555U 21041C   23178.46786661  .00018815  00000-0  12783-2 0  9996","COUNTRY_CODE":"US","BSTAR":"0.00127830000000","OBJECT_TYPE":"PAYLOAD","MEAN_ANOMALY":"273.4140","RCS_SIZE":"LARGE","FILE":"3944138","REF_FRAME":"TEME","RA_OF_ASC_NODE":"248.9409","DECAY_DATE":null,"PERIAPSIS":"546.427","INCLINATION":"53.0531","CLASSIFICATION_TYPE":"U","ELEMENT_SET_NO":"999","PERIOD":"95.592","EPOCH":"2023-06-27T11:13:43.675104","MEAN_MOTION_DDOT":"0.0000000000000","CENTER_NAME":"EARTH","EPHEMERIS_TYPE":"0","REV_AT_EPOCH":"11686","OBJECT_ID":"2021-041C","SITE":"AFETR"},{"MEAN_MOTION_DOT":"0.00017362","APOAPSIS":"547.942","SEMIMAJOR_AXIS":"6925.342","NORAD_CAT_ID":"48556","GP_ID":"234585594","TLE_LINE2":"2 48556  53.0524 248.9883 0001062 106.0885 254.0221 15.06402276116869","ECCENTRICITY":"0.00010620","MEAN_MOTION":"15.06402276","COUNTRY_CODE":"US","TIME_SYSTEM":"UTC","TLE_LINE1":"1 48556U 21041D   23178.45680967  .00017362  00000-0  11815-2 0  9999","MEAN_ANOMALY":"254.0221","RCS_SIZE":"LARGE","BSTAR":"0.00118150000000","OBJECT_TYPE":"PAYLOAD","MEAN_ELEMENT_THEORY":"SGP4","ARG_OF_PERICENTER":"106.0885","OBJECT_NAME":"STARLINK-2151","LAUNCH_DATE":"2021-05-15","DECAY_DATE":null,"RA_OF_ASC_NODE":"248.9883","CLASSIFICATION_TYPE":"U","PERIAPSIS":"546.471","INCLINATION":"53.0524","FILE":"3944138","REF_FRAME":"TEME","CENTER_NAME":"EARTH","EPOCH":"2023-06-27T10:57:48.355488","MEAN_MOTION_DDOT":"0.0000000000000","OBJECT_ID":"2021-041D","SITE":"AFETR","EPHEMERIS_TYPE":"0","REV_AT_EPOCH":"11686","PERIOD":"95.592","ELEMENT_SET_NO":"999"},{"ELEMENT_SET_NO":"999","PERIOD":"95.592","EPHEMERIS_TYPE":"0","REV_AT_EPOCH":"11700","OBJECT_ID":"2021-041E","SITE":"AFETR","EPOCH":"2023-06-27T11:04:26.484960","MEAN_MOTION_DDOT":"0.0000000000000","CENTER_NAME":"EARTH","FILE":"3944164","REF_FRAME":"TEME","INCLINATION":"53.0539","PERIAPSIS":"546.324","CLASSIFICATION_TYPE":"U","RA_OF_ASC_NODE":"238.9718","DECAY_DATE":null,"LAUNCH_DATE":"2021-05-15","OBJECT_NAME":"STARLINK-2155","ARG_OF_PERICENTER":"93.9626","MEAN_ELEMENT_THEORY":"SGP4","BSTAR":"0.00080819000000","OBJECT_TYPE":"PAYLOAD","MEAN_ANOMALY":"266.1508","RCS_SIZE":"LARGE","TIME_SYSTEM":"UTC","TLE_LINE1":"1 48557U 21041E   23178.46141765  .00011778  00000-0  80819-3 0  9995","COUNTRY_CODE":"US","ECCENTRICITY":"0.00012700","MEAN_MOTION":"15.06403167","TLE_LINE2":"2 48557  53.0539 238.9718 0001270  93.9626 266.1508 15.06403167117009","SEMIMAJOR_AXIS":"6925.339","NORAD_CAT_ID":"48557","GP_ID":"234585735","APOAPSIS":"548.083","MEAN_MOTION_DOT":"0.00011778"},{"SITE":"AFETR","OBJECT_ID":"2021-041F","REV_AT_EPOCH":"11695","EPHEMERIS_TYPE":"0","CENTER_NAME":"EARTH","MEAN_MOTION_DDOT":"0.0000000000000","EPOCH":"2023-06-27T10:59:07.907424","PERIOD":"95.592","ELEMENT_SET_NO":"999","CLASSIFICATION_TYPE":"U","INCLINATION":"53.0540","PERIAPSIS":"546.347","DECAY_DATE":null,"RA_OF_ASC_NODE":"238.9857","REF_FRAME":"TEME","FILE":"3944158","MEAN_ANOMALY":"257.8761","RCS_SIZE":"LARGE","OBJECT_TYPE":"PAYLOAD","BSTAR":"0.00057640000000","COUNTRY_CODE":"US","TLE_LINE1":"1 48558U 21041F   23178.45773041  .00008314  00000-0  57640-3 0  9991","TIME_SYSTEM":"UTC","LAUNCH_DATE":"2021-05-15","MEAN_ELEMENT_THEORY":"SGP4","ARG_OF_PERICENTER":"102.2370","OBJECT_NAME":"STARLINK-2166","APOAPSIS":"548.098","MEAN_MOTION_DOT":"0.00008314","MEAN_MOTION":"15.06396997","ECCENTRICITY":"0.00012640","GP_ID":"234585815","NORAD_CAT_ID":"48558","SEMIMAJOR_AXIS":"6925.358","TLE_LINE2":"2 48558  53.0540 238.9857 0001264 102.2370 257.8761 15.06396997116952"},{"CLASSIFICATION_TYPE":"U","INCLINATION":"53.0518","PERIAPSIS":"546.597","DECAY_DATE":null,"RA_OF_ASC_NODE":"239.1186","FILE":"3944158","REF_FRAME":"TEME","OBJECT_ID":"2021-041G","SITE":"AFETR","EPHEMERIS_TYPE":"0","REV_AT_EPOCH":"11699","CENTER_NAME":"EARTH","EPOCH":"2023-06-27T10:15:18.210240","MEAN_MOTION_DDOT":"0.0000000000000","PERIOD":"95.592","ELEMENT_SET_NO":"999","APOAPSIS":"547.811","MEAN_MOTION_DOT":"0.00016045","ECCENTRICITY":"0.00008760","MEAN_MOTION":"15.06403090","SEMIMAJOR_AXIS":"6925.339","NORAD_CAT_ID":"48559","GP_ID":"234585817","TLE_LINE2":"2 48559  53.0518 239.1186 0000876  94.5126 265.5963 15.06403090116993","RCS_SIZE":"LARGE","MEAN_ANOMALY":"265.5963","BSTAR":"0.00109350000000","OBJECT_TYPE":"PAYLOAD","COUNTRY_CODE":"US","TIME_SYSTEM":"UTC","TLE_LINE1":"1 48559U 21041G   23178.42729410  .00016045  00000-0  10935-2 0  9995","LAUNCH_DATE":"2021-05-15","MEAN_ELEMENT_THEORY":"SGP4","ARG_OF_PERICENTER":"94.5126","OBJECT_NAME":"STARLINK-2167"},{"PERIAPSIS":"546.332","INCLINATION":"53.0523","CLASSIFICATION_TYPE":"U","RA_OF_ASC_NODE":"214.1030","DECAY_DATE":null,"REF_FRAME":"TEME","FILE":"3943311","REV_AT_EPOCH":"11721","EPHEMERIS_TYPE":"0","SITE":"AFETR","OBJECT_ID":"2021-041J","MEAN_MOTION_DDOT":"0.0000000000000","EPOCH":"2023-06-26T09:07:58.783008","CENTER_NAME":"EARTH","PERIOD":"95.592","ELEMENT_SET_NO":"999","APOAPSIS":"548.119","MEAN_MOTION_DOT":"0.00000551","MEAN_MOTION":"15.06396129","ECCENTRICITY":"0.00012900","TLE_LINE2":"2 48561  53.0523 214.1030 0001290  93.5311 266.5826 15.06396129117218","GP_ID":"234565231","NORAD_CAT_ID":"48561","SEMIMAJOR_AXIS":"6925.360","OBJECT_TYPE":"PAYLOAD","BSTAR":"0.00005591600000","MEAN_ANOMALY":"266.5826","RCS_SIZE":"LARGE","TLE_LINE1":"1 48561U 21041J   23177.38054147  .00000551  00000-0  55916-4 0  9995","TIME_SYSTEM":"UTC","COUNTRY_CODE":"US","LAUNCH_DATE":"2021-05-15","OBJECT_NAME":"STARLINK-2186","ARG_OF_PERICENTER":"93.5311","MEAN_ELEMENT_THEORY":"SGP4"},{"MEAN_ELEMENT_THEORY":"SGP4","OBJECT_NAME":"STARLINK-2187","ARG_OF_PERICENTER":"103.4672","LAUNCH_DATE":"2021-05-15","COUNTRY_CODE":"US","TIME_SYSTEM":"UTC","TLE_LINE1":"1 48562U 21041K   23178.43561494  .00015990  00000-0  10897-2 0  9991","RCS_SIZE":"LARGE","MEAN_ANOMALY":"256.6459","BSTAR":"0.00108970000000","OBJECT_TYPE":"PAYLOAD","SEMIMAJOR_AXIS":"6925.327","NORAD_CAT_ID":"48562","GP_ID":"234585651","TLE_LINE2":"2 48562  53.0521 239.0870 0001274 103.4672 256.6459 15.06407154116951","ECCENTRICITY":"0.00012740","MEAN_MOTION":"15.06407154","MEAN_MOTION_DOT":"0.00015990","APOAPSIS":"548.074","ELEMENT_SET_NO":"999","PERIOD":"95.592","CENTER_NAME":"EARTH","EPOCH":"2023-06-27T10:27:17.130816","MEAN_MOTION_DDOT":"0.0000000000000","OBJECT_ID":"2021-041K","SITE":"AFETR","EPHEMERIS_TYPE":"0","REV_AT_EPOCH":"11695","FILE":"3944142","REF_FRAME":"TEME","DECAY_DATE":null,"RA_OF_ASC_NODE":"239.0870","CLASSIFICATION_TYPE":"U","INCLINATION":"53.0521","PERIAPSIS":"546.309"},{"OBJECT_TYPE":"PAYLOAD","BSTAR":"0.00010124000000","MEAN_ANOMALY":"274.4592","RCS_SIZE":"LARGE","TLE_LINE1":"1 48563U 21041L   23178.85212844  .00001227  00000-0  10124-3 0  9992","TIME_SYSTEM":"UTC","COUNTRY_CODE":"US","LAUNCH_DATE":"2021-05-15","ARG_OF_PERICENTER":"85.6528","OBJECT_NAME":"STARLINK-2188","MEAN_ELEMENT_THEORY":"SGP4","APOAPSIS":"547.978","MEAN_MOTION_DOT":"0.00001227","MEAN_MOTION":"15.06410622","ECCENTRICITY":"0.00011510","TLE_LINE2":"2 48563  53.0534 237.2156 0001151  85.6528 274.4592 15.06410622117061","NORAD_CAT_ID":"48563","GP_ID":"234594113","SEMIMAJOR_AXIS":"6925.316","REV_AT_EPOCH":"11706","EPHEMERIS_TYPE":"0","SITE":"AFETR","OBJECT_ID":"2021-041L","MEAN_MOTION_DDOT":"0.0000000000000","EPOCH":"2023-06-27T20:27:03.897216","CENTER_NAME":"EARTH","ELEMENT_SET_NO":"999","PERIOD":"95.591","INCLINATION":"53.0534","PERIAPSIS":"546.384","CLASSIFICATION_TYPE":"U","RA_OF_ASC_NODE":"237.2156","DECAY_DATE":null,"REF_FRAME":"TEME","FILE":"3944472"},{"FILE":"3944163","REF_FRAME":"TEME","DECAY_DATE":null,"RA_OF_ASC_NODE":"239.0347","CLASSIFICATION_TYPE":"U","PERIAPSIS":"546.317","INCLINATION":"53.0530","PERIOD":"95.592","ELEMENT_SET_NO":"999","CENTER_NAME":"EARTH","EPOCH":"2023-06-27T10:43:12.629280","MEAN_MOTION_DDOT":"0.0000000000000","OBJECT_ID":"2021-041M","SITE":"AFETR","EPHEMERIS_TYPE":"0","REV_AT_EPOCH":"11695","SEMIMAJOR_AXIS":"6925.329","GP_ID":"234585903","NORAD_CAT_ID":"48564","TLE_LINE2":"2 48564  53.0530 239.0347 0001267  86.9417 273.1717 15.06406370116956","ECCENTRICITY":"0.00012670","MEAN_MOTION":"15.06406370","MEAN_MOTION_DOT":"0.00013198","APOAPSIS":"548.071","MEAN_ELEMENT_THEORY":"SGP4","OBJECT_NAME":"STARLINK-2190","ARG_OF_PERICENTER":"86.9417","LAUNCH_DATE":"2021-05-15","COUNTRY_CODE":"US","TIME_SYSTEM":"UTC","TLE_LINE1":"1 48564U 21041M   23178.44667395  .00013198  00000-0  90307-3 0  9994","RCS_SIZE":"LARGE","MEAN_ANOMALY":"273.1717","BSTAR":"0.00090307000000","OBJECT_TYPE":"PAYLOAD"},{"TLE_LINE1":"1 48565U 21041N   23178.44204667  .00017473  00000-0  11886-2 0  9998","TIME_SYSTEM":"UTC","COUNTRY_CODE":"US","OBJECT_TYPE":"PAYLOAD","BSTAR":"0.00118860000000","RCS_SIZE":"LARGE","MEAN_ANOMALY":"266.5690","OBJECT_NAME":"STARLINK-2191","ARG_OF_PERICENTER":"93.5421","MEAN_ELEMENT_THEORY":"SGP4","LAUNCH_DATE":"2021-05-15","MEAN_MOTION_DOT":"0.00017473","APOAPSIS":"547.916","TLE_LINE2":"2 48565  53.0536 239.0476 0001067  93.5421 266.5690 15.06411904117005","NORAD_CAT_ID":"48565","GP_ID":"234586406","SEMIMAJOR_AXIS":"6925.312","MEAN_MOTION":"15.06411904","ECCENTRICITY":"0.00010670","MEAN_MOTION_DDOT":"0.0000000000000","EPOCH":"2023-06-27T10:36:32.832288","CENTER_NAME":"EARTH","REV_AT_EPOCH":"11700","EPHEMERIS_TYPE":"0","SITE":"AFETR","OBJECT_ID":"2021-041N","ELEMENT_SET_NO":"999","PERIOD":"95.591","RA_OF_ASC_NODE":"239.0476","DECAY_DATE":null,"INCLINATION":"53.0536","PERIAPSIS":"546.438","CLASSIFICATION_TYPE":"U","REF_FRAME":"TEME","FILE":"3944163"}];
